NORAD_CAT_ID,OBJECT_NAME,OBJECT_TYPE,EPOCH,MEAN_MOTION,ECCENTRICITY,INCLINATION,RA_OF_ASC_NODE,ARG_OF_PERICENTER,MEAN_ANOMALY,BSTAR,MEAN_MOTION_DOT,MEAN_MOTION_DDOT,TLE_LINE0,TLE_LINE1,TLE_LINE2,SEMIMAJOR_AXIS,PERIOD,APOGEE,PERIGEE,DECAYED
53606.0,STARLINK-4590,PAYLOAD,2024-05-15 13:29:06,15.08892186,0.000115,53.2154,331.129,327.7384,32.3538,0.0014721,0.00023252,0.0,0 STARLINK-4590,1 53606U 22104U   24136.56188012  .00023252  00000-0  14721-2 0  9997,2 53606  53.2154 331.1290 0001150 327.7384  32.3538 15.08892186 94951,6917.721,95.434,540.381,538.79,0.0
53606.0,STARLINK-4590,PAYLOAD,2024-05-15 19:50:38,15.08852056,0.0001263,53.2179,329.942,102.9175,257.1958,-0.00061105,-0.00010003,0.0,0 STARLINK-4590,1 53606U 22104U   24136.82683684 -.00010003  00000-0 -61105-3 0  9992,2 53606  53.2179 329.9420 0001263 102.9175 257.1958 15.08852056 94993,6917.844,95.437,540.582,538.835,0.0
53606.0,STARLINK-4590,PAYLOAD,2024-05-16 13:19:53,15.0884717,0.0001677,53.2174,326.6683,74.7542,285.3636,0.0016829,0.00026602,0.0,0 STARLINK-4590,1 53606U 22104U   24137.55548562  .00026602  00000-0  16829-2 0  9990,2 53606  53.2174 326.6683 0001677  74.7542 285.3636 15.08847170 95679,6917.858,95.437,540.884,538.563,0.0
53606.0,STARLINK-4590,PAYLOAD,2024-05-16 19:41:26,15.08852555,0.000168,53.2177,325.4793,81.5982,278.5201,0.0018005,0.00028493,0.0,0 STARLINK-4590,1 53606U 22104U   24137.82044437  .00028493  00000-0  18005-2 0  9990,2 53606  53.2177 325.4793 0001680  81.5982 278.5201 15.08852555 95719,6917.842,95.437,540.869,538.545,0.0
53606.0,STARLINK-4590,PAYLOAD,2024-05-17 05:13:44,15.08878848,0.0001503,53.2179,323.6944,65.2595,294.8553,0.0018353,0.00029073,0.0,0 STARLINK-4590,1 53606U 22104U   24138.21787680  .00029073  00000-0  18353-2 0  9999,2 53606  53.2179 323.6944 0001503  65.2595 294.8553 15.08878848 95200,6917.762,95.435,540.666,538.587,0.0
53606.0,STARLINK-4590,PAYLOAD,2024-05-17 21:07:37,15.08823051,0.0002236,53.2168,320.7209,75.8057,284.3183,0.0025413,0.00040371,0.0,0 STARLINK-4590,1 53606U 22104U   24138.88029679  .00040371  00000-0  25413-2 0  9998,2 53606  53.2168 320.7209 0002236  75.8057 284.3183 15.08823051 95304,6917.932,95.439,541.344,538.25,0.0
53606.0,STARLINK-4590,PAYLOAD,2024-05-18 05:04:33,15.08849615,0.0001762,53.2175,319.2344,81.9168,278.2024,0.0024976,0.00039696,0.0,0 STARLINK-4590,1 53606U 22104U   24139.21149512  .00039696  00000-0  24976-2 0  9996,2 53606  53.2175 319.2344 0001762  81.9168 278.2024 15.08849615 95927,6917.851,95.437,540.935,538.497,0.0
53606.0,STARLINK-4590,PAYLOAD,2024-05-18 20:58:23,15.08883387,0.0001314,53.2168,316.2592,87.3048,272.8095,0.0027694,0.00044116,0.0,0 STARLINK-4590,1 53606U 22104U   24139.87388543  .00044116  00000-0  27694-2 0  9990,2 53606  53.2168 316.2592 0001314  87.3048 272.8095 15.08883387 95451,6917.748,95.435,540.522,538.704,0.0
53606.0,STARLINK-4590,PAYLOAD,2024-05-19 04:55:18,15.08882092,0.0001334,53.2153,314.7722,104.9805,255.1334,0.00094433,0.0001479,0.0,0 STARLINK-4590,1 53606U 22104U   24140.20507761  .00014790  00000-0  94433-3 0  9995,2 53606  53.2153 314.7722 0001334 104.9805 255.1334 15.08882092 95500,6917.752,95.435,540.54,538.694,0.0
53606.0,STARLINK-4590,PAYLOAD,2024-05-19 20:49:11,15.08812548,0.0001312,53.2157,311.8009,116.8554,243.2573,0.0020515,0.00032488,0.0,0 STARLINK-4590,1 53606U 22104U   24140.86749755  .00032488  00000-0  20515-2 0  9991,2 53606  53.2157 311.8009 0001312 116.8554 243.2573 15.08812548 95602,6917.964,95.439,540.737,538.922,0.0
53606.0,STARLINK-4590,PAYLOAD,2024-05-20 11:07:40,15.08850252,0.0001338,53.2155,309.1249,114.5336,245.5795,0.0020629,0.00032705,0.0,0 STARLINK-4590,1 53606U 22104U   24141.46366135  .00032705  00000-0  20629-2 0  9993,2 53606  53.2155 309.1249 0001338 114.5336 245.5795 15.08850252 96265,6917.849,95.437,540.64,538.788,0.0
53606.0,STARLINK-4590,PAYLOAD,2024-05-21 14:09:13,15.08847801,9.31e-05,53.2189,304.0668,94.0982,266.0117,0.00052947,8.15e-05,0.0,0 STARLINK-4590,1 53606U 22104U   24142.58973498  .00008150  00000-0  52947-3 0  9999,2 53606  53.2189 304.0668 0000931  94.0982 266.0117 15.08847801 96439,6917.857,95.437,540.366,539.077,0.0
53606.0,STARLINK-4590,PAYLOAD,2024-05-21 20:30:45,15.08846645,0.0001122,53.2175,302.8792,98.1333,261.9786,0.00013195,1.813e-05,0.0,0 STARLINK-4590,1 53606U 22104U   24142.85469534  .00001813  00000-0  13195-3 0  9991,2 53606  53.2175 302.8792 0001122  98.1333 261.9786 15.08846645 95908,6917.86,95.437,540.501,538.949,0.0
53606.0,STARLINK-4590,PAYLOAD,2024-05-22 10:49:14,15.08840994,0.0001194,53.2177,300.2018,103.363,256.7496,1.6911e-05,-1.9e-07,0.0,0 STARLINK-4590,1 53606U 22104U   24143.45085681 -.00000019  00000-0  16911-4 0  9993,2 53606  53.2177 300.2018 0001194 103.3630 256.7496 15.08840994 95991,6917.877,95.437,540.568,538.916,0.0
53606.0,STARLINK-4590,PAYLOAD,2024-05-23 13:50:47,15.08834069,0.0001175,53.2176,295.1469,89.7596,270.353,6.0027e-05,6.67e-06,0.0,0 STARLINK-4590,1 53606U 22104U   24144.57694276  .00000667  00000-0  60027-4 0  9998,2 53606  53.2176 295.1469 0001175  89.7596 270.3530 15.08834069 96739,6917.899,95.438,540.576,538.951,0.0
53606.0,STARLINK-4590,PAYLOAD,2024-05-23 15:26:10,15.08834726,0.0001189,53.2171,294.8495,83.6684,276.4444,6.4741e-05,7.43e-06,0.0,0 STARLINK-4590,1 53606U 22104U   24144.64318264  .00000743  00000-0  64741-4 0  9998,2 53606  53.2171 294.8495 0001189  83.6684 276.4444 15.08834726 96174,6917.897,95.438,540.584,538.939,0.0
53606.0,STARLINK-4590,PAYLOAD,2024-05-24 13:41:34,15.08842075,0.0001237,53.2159,290.6826,93.9397,266.1736,0.00014874,2.08e-05,0.0,0 STARLINK-4590,1 53606U 22104U   24145.57053917  .00002080  00000-0  14874-3 0  9999,2 53606  53.2159 290.6826 0001237  93.9397 266.1736 15.08842075 96885,6917.874,95.437,540.595,538.883,0.0
53606.0,STARLINK-4590,PAYLOAD,2024-05-24 18:27:43,15.0884602,0.0001217,53.2166,289.7938,83.9934,276.1196,0.00019116,2.756e-05,0.0,0 STARLINK-4590,1 53606U 22104U   24145.76925762  .00002756  00000-0  19116-3 0  9990,2 53606  53.2166 289.7938 0001217  83.9934 276.1196 15.08846020 96346,6917.862,95.437,540.569,538.885,0.0
53606.0,STARLINK-4590,PAYLOAD,2024-05-25 13:32:22,15.08831351,0.0001076,53.2164,286.2248,84.7217,275.3898,6.203e-06,-1.89e-06,0.0,0 STARLINK-4590,1 53606U 22104U   24146.56414756 -.00000189  00000-0  62030-5 0  9999,2 53606  53.2164 286.2248 0001076  84.7217 275.3898 15.08831351 96460,6917.907,95.438,540.516,539.027,0.0
53606.0,STARLINK-4590,PAYLOAD,2024-05-26 02:15:27,15.08841383,0.0001074,53.2166,283.8453,84.8021,275.3093,0.00011097,1.479e-05,0.0,0 STARLINK-4590,1 53606U 22104U   24147.09406366  .00001479  00000-0  11097-3 0  9993,2 53606  53.2166 283.8453 0001074  84.8021 275.3093 15.08841383 96547,6917.876,95.437,540.484,538.998,0.0
53606.0,STARLINK-4590,PAYLOAD,2024-05-26 14:58:32,15.08846759,0.0001118,53.2165,281.4712,80.4813,279.6306,4.3862e-05,4.1e-06,0.0,0 STARLINK-4590,1 53606U 22104U   24147.62398410  .00000410  00000-0  43862-4 0  9992,2 53606  53.2165 281.4712 0001118  80.4813 279.6306 15.08846759 97196,6917.86,95.437,540.498,538.951,0.0
53606.0,STARLINK-4590,PAYLOAD,2024-05-26 16:33:55,15.08848954,0.0001168,53.2171,281.1723,83.2657,276.8468,0.00017604,2.516e-05,0.0,0 STARLINK-4590,1 53606U 22104U   24147.69022144  .00002516  00000-0  17604-3 0  9990,2 53606  53.2171 281.1723 0001168  83.2657 276.8468 15.08848954 97203,6917.853,95.437,540.526,538.91,0.0
53606.0,STARLINK-4590,PAYLOAD,2024-05-27 13:13:56,15.0884178,0.000134,53.2182,277.3034,83.2964,276.818,0.0002398,3.531e-05,0.0,0 STARLINK-4590,1 53606U 22104U   24148.55134682  .00003531  00000-0  23980-3 0  9999,2 53606  53.2182 277.3034 0001340  83.2964 276.8180 15.08841780 96761,6917.875,95.437,540.667,538.813,0.0
53606.0,STARLINK-4590,PAYLOAD,2024-05-27 14:49:19,15.08843617,0.0001258,53.2175,277.0116,78.2608,281.8525,0.00021799,3.183e-05,0.0,0 STARLINK-4590,1 53606U 22104U   24148.61758648  .00003183  00000-0  21799-3 0  9999,2 53606  53.2175 277.0116 0001258  78.2608 281.8525 15.08843617 97343,6917.869,95.437,540.605,538.864,0.0
53606.0,STARLINK-4590,PAYLOAD,2024-05-27 18:00:05,15.08846748,0.0001255,53.2174,276.4165,79.4752,280.6382,0.00025229,3.73e-05,0.0,0 STARLINK-4590,1 53606U 22104U   24148.75006480  .00003730  00000-0  25229-3 0  9994,2 53606  53.2174 276.4165 0001255  79.4752 280.6382 15.08846748 97367,6917.86,95.437,540.593,538.857,0.0
53606.0,STARLINK-4590,PAYLOAD,2024-05-28 14:40:06,15.0884588,0.0001228,53.2175,272.5493,85.1094,275.0038,3.8307e-05,3.22e-06,0.0,0 STARLINK-4590,1 53606U 22104U   24149.61118203  .00000322  00000-0  38307-4 0  9993,2 53606  53.2175 272.5493 0001228  85.1094 275.0038 15.08845880 97498,6917.862,95.437,540.577,538.878,0.0
53606.0,STARLINK-4590,PAYLOAD,2024-05-29 12:55:29,15.08844305,0.0001183,53.2183,268.3859,90.5602,269.5526,3.7511e-05,3.09e-06,0.0,0 STARLINK-4590,1 53606U 22104U   24150.53854130  .00000309  00000-0  37511-4 0  9993,2 53606  53.2183 268.3859 0001183  90.5602 269.5526 15.08844305 97638,6917.867,95.437,540.551,538.914,0.0
53606.0,STARLINK-4590,PAYLOAD,2024-05-30 12:46:17,15.08838729,0.0001115,53.2177,263.9258,87.0166,273.0953,5.1647e-05,5.34e-06,0.0,0 STARLINK-4590,1 53606U 22104U   24151.53214357  .00000534  00000-0  51647-4 0  9991,2 53606  53.2177 263.9258 0001115  87.0166 273.0953 15.08838729 97217,6917.884,95.438,540.521,538.978,0.0
53606.0,STARLINK-4590,PAYLOAD,2024-05-31 12:37:04,15.0883956,0.0001311,53.2177,259.4647,113.0519,247.0612,5.8398e-05,6.42e-06,0.0,0 STARLINK-4590,1 53606U 22104U   24152.52574229  .00000642  00000-0  58398-4 0  9998,2 53606  53.2177 259.4647 0001311 113.0519 247.0612 15.08839560 97935,6917.882,95.438,540.654,538.84,0.0
53606.0,STARLINK-4590,PAYLOAD,2024-05-31 14:12:27,15.08841173,9.97e-05,53.2166,259.1675,83.7432,276.3674,7.7743e-05,9.5e-06,0.0,0 STARLINK-4590,1 53606U 22104U   24152.59198165  .00000950  00000-0  77743-4 0  9993,2 53606  53.2166 259.1675 0000997  83.7432 276.3674 15.08841173 97371,6917.877,95.437,540.432,539.052,0.0
